[Satellite]
VERSION=1.1
NAME=NILESAT 102
NICKNAME=NILESAT 102
TLE1=1 26470U 00046B   15054.11234745 -.00000084  00000-0  00000+0 0  9993
TLE2=2 26470   0.0632 303.5392 0005450  13.5152 229.0385  1.00270500 53202
